[{"OBJECT_NAME":"IRIDIUM 105","OBJECT_ID":"2017-003E","EPOCH":"2026-03-09T19:29:46.518144","MEAN_MOTION":14.34401202,"ECCENTRICITY":0.0002251,"INCLINATION":86.3921,"RA_OF_ASC_NODE":98.4421,"ARG_OF_PERICENTER":92.6468,"MEAN_ANOMALY":267.4986,"EPHEMERIS_TYPE":0,"CLASSIFICATION_TYPE":"U","NORAD_CAT_ID":41921,"ELEMENT_SET_NO":999,"REV_AT_EPOCH":48089,"BSTAR":7.7196279e-5,"MEAN_MOTION_DOT":2.37e-6,"MEAN_MOTION_DDOT":0},{"OBJECT_NAME":"DMSP 5D-2 F13 DEB","OBJECT_ID":"1995-015AF","EPOCH":"2026-03-09T14:26:50.755776","MEAN_MOTION":14.32934748,"ECCENTRICITY":0.0006313,"INCLINATION":98.654,"RA_OF_ASC_NODE":98.3059,"ARG_OF_PERICENTER":258.0444,"MEAN_ANOMALY":102.0032,"EPHEMERIS_TYPE":0,"CLASSIFICATION_TYPE":"U","NORAD_CAT_ID":40418,"ELEMENT_SET_NO":999,"REV_AT_EPOCH":57297,"BSTAR":0.0011717,"MEAN_MOTION_DOT":3.16e-5,"MEAN_MOTION_DDOT":0}]
